GLOBALSTAR M024         
1 25883U 99043A   25168.90435674 -.00000084  00000+0 -67421-3 0  9997
2 25883  52.0050  19.0041 0002186  92.0239 280.1575 11.10168832114945
GLOBALSTAR M027         
1 25884U 99043B   25168.49602487 -.00000075  00000+0 -42384-3 0  9991
2 25884  52.0211  97.9153 0021858 352.9187   7.1295 11.04371955141278
GLOBALSTAR M054         
1 25885U 99043C   25168.94316689  .00000017  00000+0  22616-2 0  9997
2 25885  52.0115 224.0960 0006093 178.1066 353.2086 11.39224091119138
GLOBALSTAR M053         
1 25886U 99043D   25168.72039676 -.00000066  00000+0  90188-4 0  9998
2 25886  51.9942 171.7508 0002834  80.1041  91.7809 11.27665810119508
GLOBALSTAR M058         
1 25907U 99049A   25168.56023627 -.00000106  00000+0 -28956-3 0  9998
2 25907  51.9936 108.1777 0001856 280.0098  80.0527 11.93200189541585
GLOBALSTAR M050         
1 25908U 99049B   25168.23271373 -.00000158  00000+0 -78508-3 0  9991
2 25908  51.9974 116.7245 0009528  30.7158 109.9436 12.07454635148197
GLOBALSTAR M033         
1 25909U 99049C   25168.84150276 -.00000118  00000+0 -25785-3 0  9992
2 25909  51.9931 346.8410 0012790 263.6540  96.2851 12.20293114535825
GLOBALSTAR M055         
1 25910U 99049D   25168.82599905 -.00000090  00000+0  38121-4 0  9995
2 25910  52.0037 357.6018 0007711 128.8709 231.2831 12.29428702168368
